#aV2012 12 23  0  0  0.00000000     288 DD+AD WGS84 FIT  NGA
## 1720      0.00000000   300.00000000 56284 0.0000000000000
+   31     1  2  3  4  5  6  7  8  9 10 11 12 13 14 15 16 17
+         18 19 20 21 22 23 24 25 26 28 29 30 31 32  0  0  0
+          0  0  0  0  0  0  0  0  0  0  0  0  0  0  0  0  0
+          0  0  0  0  0  0  0  0  0  0  0  0  0  0  0  0  0
+          0  0  0  0  0  0  0  0  0  0  0  0  0  0  0  0  0
++         2  2  2  2  2  2  2  2  2  2  2  2  2  2  2  2  2
++         2  2  2  2  2  2  2  2  2  2  2  2  2  2  2  0  0
++         0  0  0  0  0  0  0  0  0  0  0  0  0  0  0  0  0
++         0  0  0  0  0  0  0  0  0  0  0  0  0  0  0  0  0
++         0  0  0  0  0  0  0  0  0  0  0  0  0  0  0  0  0
%c cc cc ccc ccc cccc cccc cccc cccc ccccc ccccc ccccc ccccc
%c cc cc ccc ccc cccc cccc cccc cccc ccccc ccccc ccccc ccccc
%f  0.0000000  0.000000000  0.00000000000  0.000000000000000
%f  0.0000000  0.000000000  0.00000000000  0.000000000000000
%i    0    0    0    0      0      0      0      0         0
%i    0    0    0    0      0      0      0      0         0
/*      NGA, ST. LOUIS,MO.                                  
/*   EPHEMERIS COMPUTED FROM  1 DAYS OF DATA
/*   EPOCHA SMOOTHER  
/* CCCCCCCCCCCCCCCCCCCCCCCCCCCCCCCCCCCCCCCCCCCCCCCCCCCCCCCCC
*  2012 12 23  2 45  0.00000000                                                 
P  1 -22533.564831 -14119.079256    437.381062    289.019503                    
V  1   1025.180248  -2673.328471 -31682.131894      0.021346                    
P  2   7841.902598  19359.808066  16854.921791    412.348509                    
V  2 -18808.156342  -9439.850952  19273.027380      0.010109                    
P  3  -2274.837836 -17103.206202 -20642.675520    145.235416                    
V  3  21293.918333 -13629.302037   9406.641675      0.050482                    
P  4  -8233.276255  13238.838796  21222.761774     83.163831                    
V  4 -23416.782936 -14796.396972    434.549812      0.111154                    
P  5   3671.683431  25346.667307  -6782.099383   -374.391806                    
V  5  -3530.081178   8463.043583  29995.426353     -0.022028                    
P  6   5105.890325 -18461.040379 -18163.581987    414.916811                    
V  6  21203.970807 -10221.198948  16593.179110     -0.132526                    
P  7 -22360.975589  -3500.361281 -14086.013374    160.247231                    
V  7 -13897.157314 -11268.038703  24508.826610      0.044399                    
P  8 -15282.509256   5179.255458 -21123.418311      3.611029                    
V  8 -20721.780002 -17035.316856  10196.012975      0.000998                    
P  9  16788.825637  18350.129253  -9759.006834    208.530212                    
V  9 -10756.041309  -4715.792992 -29041.058501      0.025777                    
P 10  -8959.303819  22433.813118  10273.316009    -63.269861                    
V 10  -2396.379494 -13819.683623  27753.573306     -0.014836                    
P 11 -21435.749750 -13631.476358  -8656.723820   -336.024062                    
V 11  11272.461645  -1154.336869 -27167.762102     -0.039365                    
P 12  11779.580763  14092.856142  19240.215844    108.332839                    
V 12  -2832.014256  24199.835391 -15786.205315      0.020553                    
P 13 -24787.733946   3466.267358   8917.084424    158.126107                    
V 13   9959.269182  -5957.741690  29441.925903     -0.028323                    
P 14  20687.432026 -14670.986339   7837.003974    218.636690                    
V 14   9804.344947  -1774.055904 -30083.584557      0.005205                    
P 15  13216.177568   9984.830310 -20820.679891   -102.977176                    
V 15 -22818.371031  13340.756258  -7846.910039     -0.010620                    
P 16  -1850.615198 -25526.504235  -6432.229572   -251.102704                    
V 16   3053.134804  -7958.759952  31049.436357     -0.003845                    
P 17 -19407.690549  15772.736725   8765.485412     66.810819                    
V 17 -11013.332014   2242.377107 -29306.592768     -0.036057                    
P 18  15242.497802  -7973.351980 -19772.355476    230.728345                    
V 18    159.954502  26208.415801 -10599.145961      0.018663                    
P 19  -9971.368139 -12161.258573 -21526.606226   -333.334830                    
V 19  25010.108883 -10435.817363  -5311.335784     -0.033476                    
P 20 -14020.756934 -12335.958202  18739.492206     77.381309                    
V 20   1765.731198 -24247.991311 -14433.441813      0.013022                    
P 21  21280.594130   -144.566685 -15696.471554   -270.019104                    
V 21  16173.554321  13231.491432  20554.522732     -0.023275                    
P 22  10710.071259 -20537.338992 -12698.500187    153.964847                    
V 22   2349.619366  16710.002596 -24817.276528      0.009219                    
P 23 -19593.064951  -4137.559085  17695.358642    131.341783                    
V 23  19231.097505 -11218.075230  18355.974455     -0.037919                    
P 24  21048.481926  15913.012869  -3119.538667      1.892472                    
V 24  -4861.717982    269.867715 -31378.893714     -0.006185                    
P 25  14960.396802    504.615487  21903.283016     58.093162                    
V 25  -1098.333551  27844.892950    182.289062      0.023194                    
P 26     56.570023  15801.975343 -21920.757068   -165.221289                    
V 26 -24641.905522   9385.310598   7247.737650      0.135708                    
P 28 -12081.201399  17389.856400 -15326.614768    216.520794                    
V 28    267.668201 -20635.710618 -22976.650441      0.035819                    
P 29  24258.665279  -3207.418416  10334.513668    390.266554                    
V 29 -10884.549813   7587.444675  28082.055920      0.039299                    
P 30   2120.082687 -25946.262146   4966.981005   -275.779005                    
V 30   3078.744258   6596.947279  30936.844320      0.120257                    
P 31   3713.607841 -15050.501454  21722.702093    293.720194                    
V 31  22766.540343  14730.444828   6626.061279      0.020203                    
P 32  -7912.631729 -20880.031769  14921.027642   -519.368726                    
V 32   4394.918253 -18064.345213 -22688.398120     -0.034143                    
EOF
